[{"OBJECT_NAME":"STARLINK-35015","OBJECT_ID":"2025-184L","EPOCH":"2026-03-09T17:40:50.096352","MEAN_MOTION":15.05667546,"ECCENTRICITY":9.939e-5,"INCLINATION":97.6029,"RA_OF_ASC_NODE":122.6408,"ARG_OF_PERICENTER":140.9306,"MEAN_ANOMALY":219.1993,"EPHEMERIS_TYPE":0,"CLASSIFICATION_TYPE":"U","NORAD_CAT_ID":65283,"ELEMENT_SET_NO":999,"REV_AT_EPOCH":3130,"BSTAR":0.00094316005,"MEAN_MOTION_DOT":0.0001358,"MEAN_MOTION_DDOT":0},{"OBJECT_NAME":"CZ-2C DEB","OBJECT_ID":"2014-059D","EPOCH":"2026-03-09T22:58:58.836288","MEAN_MOTION":14.93158478,"ECCENTRICITY":0.00543695,"INCLINATION":97.8294,"RA_OF_ASC_NODE":330.422,"ARG_OF_PERICENTER":95.2459,"MEAN_ANOMALY":265.4968,"EPHEMERIS_TYPE":0,"CLASSIFICATION_TYPE":"U","NORAD_CAT_ID":40264,"ELEMENT_SET_NO":999,"REV_AT_EPOCH":60833,"BSTAR":0.0017870547,"MEAN_MOTION_DOT":0.00019177,"MEAN_MOTION_DDOT":0}]
